FLOCK 1C-8              
1 40040U 14033AG  17307.72466225  .00000821  00000-0  88532-4 0  9992
2 40040  97.9235 223.0963 0011938 177.2408 182.8936 14.91135381183422
FLOCK 1C-3              
1 40041U 14033AH  17307.77200053  .00000650  00000-0  75262-4 0  9999
2 40041  97.9197 220.2926 0012253 187.4599 172.6448 14.88880335183251
POLYITAN-1              
1 40042U 14033AJ  17307.50798729  .00000514  00000-0  61743-4 0  9991
2 40042  97.9137 218.3608 0014228 190.6594 169.4323 14.88202088183143
TIGRISAT                
1 40043U 14033AK  17307.60809606  .00000204  00000-0  37814-4 0  9998
2 40043  97.8362 187.7303 0059461 204.3850 155.4544 14.74048194181071
LEMUR-1                 
1 40044U 14033AL  17307.60586104  .00000207  00000-0  38379-4 0  9994
2 40044  97.8359 187.4316 0058583 205.6283 154.2020 14.73873980181352
AEROCUBE 6A             
1 40045U 14033AM  17307.62218509  .00000484  00000-0  77699-4 0  9993
2 40045  97.8498 189.2907 0057380 199.5642 160.3366 14.74959853181038
AEROCUBE 6B             
1 40046U 14033AN  17307.62211990  .00000422  00000-0  68779-4 0  9992
2 40046  97.8483 189.2089 0056696 198.8506 161.0605 14.74959577181413
UKUBE-1                 
1 40074U 14037F   17307.83926060  .00000464  00000-0  63314-4 0  9997
2 40074  98.3612  69.1574 0003859 339.3255  20.7804 14.83634518179880
BRITE-PL 2              
1 40119U 14049B   17307.83943829  .00000175  00000-0  27437-4 0  9997
2 40119  97.9312  32.9681 0017372 358.3922   1.7233 14.84206784173875
FIREBIRD 4              
1 40378U 15003C   17307.82186310  .00003522  00000-0  15005-3 0  9994
2 40378  99.1125 159.7298 0133157 259.3356  99.2854 15.16207902152160
GRIFEX                  
1 40379U 15003D   17307.77458733  .00002470  00000-0  11328-3 0  9995
2 40379  99.1159 156.8567 0139482 268.9382  89.5861 15.13568153151992
EXOCUBE                 
1 40380U 15003E   17307.57086282  .00001714  00000-0  83118-4 0  9998
2 40380  99.1216 155.0503 0143510 274.7471  83.7379 15.11941100151849
DEORBITSAIL             
1 40719U 15032E   17307.76069059  .00000620  00000-0  96828-4 0  9997
2 40719  97.9639 199.6541 0017743  55.9309 304.3582 14.76218174124917
TIANWANG 1C (TW-1C)     
1 40926U 15051B   17307.80951581  .00009991  00000-0  21100-3 0  9993
2 40926  97.2152 346.3821 0011902  31.4090  23.3092 15.45306944118466
TIANWANG 1B (TW-1B)     
1 40927U 15051C   17307.79304834  .00009621  00000-0  21135-3 0  9993
2 40927  97.2237 346.3189 0012058  40.2812  49.1851 15.44153759118395
TIANWANG 1A (TW-1A)     
1 40928U 15051D   17307.83527764  .00003924  00000-0  10926-3 0  9994
2 40928  97.2135 341.1270 0014100  59.8724  25.0315 15.37295007118141
LEMUR-2-JOEL            
1 40932U 15052C   17307.40929583  .00001117  00000-0  64376-4 0  9999
2 40932   6.0140 313.7498 0014089  68.3252 291.8375 14.77570092113635
LEMUR-2-CHRIS           
1 40933U 15052D   17307.39812867  .00001233  00000-0  79655-4 0  9999
2 40933   6.0094 312.4583 0014622  71.5554 288.6113 14.77717208113646
LEMUR-2-JEROEN          
1 40934U 15052E   17307.49828821  .00001205  00000-0  77950-4 0  9993
2 40934   6.0097 317.9629 0011576  55.2653 304.8553 14.77081728113566
LEMUR-2-PETER           
1 40935U 15052F   17307.47232080  .00001205  00000-0  78658-4 0  9994
2 40935   6.0045 319.9132 0010998  50.7578 309.3505 14.76839369113562
EXACTVIEW 9             
1 40936U 15052G   17305.56129439  .00000934  00000-0  41944-4 0  9992
2 40936   6.0049 336.5907 0010822  15.8345 344.2454 14.76314150113277
ATHENOXAT 1             
1 41168U 15077C   17307.46196759  .00002817  00000-0  12026-3 0  9997
2 41168  14.9849 231.6165 0012241 147.9021 185.0920 15.12129577104140
GALASSIA                
1 41170U 15077E   17307.47504597  .00002549  00000-0  10362-3 0  9997
2 41170  14.9888 227.1448 0013375 166.9955 193.0712 15.12571743104195
VELOX 2                 
1 41171U 15077F   17307.13203838  .00002000  00000-0  79414-4 0  9991
2 41171  14.9911 245.2161 0009104 113.1812 246.9467 15.10232375104005
AGGIESAT 4              
1 41313U 98067HP  17307.34042989  .00057941  00000-0  24475-3 0  9990
2 41313  51.6380   3.8897 0005027 352.8099   7.2832 15.84814569100905
HORYU-IV                
1 41340U 16012D   17307.33648246  .00000790  00000-0  53993-4 0  9995
2 41340  31.0059 303.8894 0014101  13.7459 346.3558 15.00780158 93936
OUFTI-1                 
1 41458U 16025C   17307.80925001  .00003653  00000-0  19535-3 0  9992
2 41458  98.1694 353.3314 0172550 182.5416 177.4939 15.03851061 83551
E-ST@R-II               
1 41459U 16025D   17307.71360122  .00001747  00000-0  96163-4 0  9995
2 41459  98.1712 353.1533 0173635 182.8652 177.1586 15.03639299 83534
AAUSAT 4                
1 41460U 16025E   17307.68599655  .00003541  00000-0  18937-3 0  9994
2 41460  98.1620 353.3245 0165467 180.7875 179.3116 15.04759087 83569
DIWATA-1                
1 41463U 98067HT  17307.75429514  .00012836  00000-0  13160-3 0  9997
2 41463  51.6410  39.6820 0000919 346.0460 150.5768 15.65349019 86635
FLOCK 2E'-1             
1 41479U 98067HZ  17307.45613718  .00047419  00000-0  27568-3 0  9994
2 41479  51.6355  22.7213 0002723 353.3628   6.7336 15.77993216 83773
FLOCK 2E'-3             
1 41480U 98067JA  17307.76747742  .00053394  00000-0  32279-3 0  9999
2 41480  51.6289  21.0582 0002573 349.6336  10.4611 15.77062779 83813
FLOCK 2E'-2             
1 41481U 98067JB  17307.66358578  .00295933  00000-0  10505-2 0  9998
2 41481  51.6268  18.0103 0008073  14.2024 345.9206 15.87596177 83839
FLOCK 2E'-4             
1 41482U 98067JC  17307.64434079  .01176430  79740-3  15886-2 0  9996
2 41482  51.6169  12.5048 0011194  15.1001 345.0344 16.05814498 83902
FLOCK 2E-1              
1 41483U 98067JD  17307.47923121  .00033412  00000-0  22815-3 0  9991
2 41483  51.6350  25.2270 0001639 310.7596  49.3261 15.74492049 83595
FLOCK 2E-2              
1 41484U 98067JE  17307.66361169  .00066841  00000-0  39013-3 0  9991
2 41484  51.6329  20.4558 0002927 324.0357  36.0446 15.77762096 83674
FLOCK 2E-3              
1 41486U 98067JG  17307.76658253  .00042546  00000-0  27090-3 0  9995
2 41486  51.6342  24.8691 0003110 329.7706  30.3114 15.75981533 83645
FLOCK 2E-4              
1 41487U 98067JH  17307.78042639  .00034930  00000-0  23514-3 0  9998
2 41487  51.6356  23.4505 0002254 319.2708  40.8123 15.74798375 83661
FLOCK 2E-6              
1 41563U 98067JM  17307.59038490  .00092325  00000-0  59687-3 0  9994
2 41563  51.6345  28.1835 0003926   8.6159 351.4907 15.75309165 81652
FLOCK 2E-5              
1 41564U 98067JN  17307.63801659  .00028259  00000-0  21502-3 0  9995
2 41564  51.6346  28.5199 0002532   2.4205 357.6805 15.72040942 81643
FLOCK 2E-7              
1 41565U 98067JP  17307.71885524  .00044962  00000-0  26102-3 0  9998
2 41565  51.6305  19.9547 0005077 327.6015  32.4673 15.78037604 81668
FLOCK 2E'-5             
1 41567U 98067JR  17307.78037776  .00028160  00000-0  22487-3 0  9999
2 41567  51.6359  30.2580 0004683 317.7632  42.3005 15.70881176 81504
FLOCK 2E'-6             
1 41568U 98067JS  17307.49510842  .00036200  00000-0  25160-3 0  9993
2 41568  51.6348  26.7677 0004659 324.7489  35.3201 15.74029393 81555
FLOCK 2E'-8             
1 41569U 98067JT  17307.65587770  .00046759  00000-0  26339-3 0  9995
2 41569  51.6343  19.5433 0003173 329.0663  31.0151 15.78703750 81549
FLOCK 2E-9              
1 41571U 98067JV  17307.56250114  .00053572  00000-0  27981-3 0  9992
2 41571  51.6343  18.1815 0003744 327.1464  32.9304 15.80311130 81532
FLOCK 2E-10             
1 41572U 98067JW  17307.72424171  .00049498  00000-0  29859-3 0  9995
2 41572  51.6370  21.5482 0004803 324.8143  35.2540 15.77134087 81501
FLOCK 2E-12             
1 41573U 98067JX  17307.62023530  .00052175  00000-0  28874-3 0  9991
2 41573  51.6342  20.0619 0005273 331.9343  28.1373 15.79038836 81513
FLOCK 2E-11             
1 41574U 98067JY  17307.73597966  .00055500  00000-0  30917-3 0  9999
2 41574  51.6280  18.5016 0006071 337.8529  22.2209 15.78860623 81548
FLOCK 2E'-9             
1 41575U 98067JZ  17307.47226748  .00060492  00000-0  29878-3 0  9998
2 41575  51.6316  17.4588 0006698 341.5949  18.4809 15.81456730 81529
FLOCK 2E'-10            
1 41576U 98067KA  17307.76768726  .00055773  00000-0  29214-3 0  9998
2 41576  51.6338  18.8302 0006304 343.6784  16.4013 15.80214525 81435
FLOCK 2E'-11            
1 41577U 98067KB  17307.70868957  .00055902  00000-0  32708-3 0  9996
2 41577  51.6363  20.7179 0005175 323.1440  36.9204 15.77768071 81227
FLOCK 2E'-12            
1 41578U 98067KC  17307.71054536  .00080873  00000-0  39115-3 0  9992
2 41578  51.6292  17.5739 0006697 332.1034  27.9608 15.81795651 81265
FLOCK 2P-6              
1 41606U 16040H   17307.75392806  .00006420  00000-0  27384-3 0  9995
2 41606  97.4447   9.3196 0009283 310.8975  49.1457 15.23234158 75946
FLOCK 2P-11             
1 41608U 16040K   17307.69212454  .00004424  00000-0  18988-3 0  9992
2 41608  97.4441   9.2240 0009232 310.8311  49.2125 15.23198632 75870
FLOCK 2P-2              
1 41609U 16040L   17307.70992224  .00005806  00000-0  24786-3 0  9993
2 41609  97.4446   9.2332 0009157 310.8518  49.1924 15.23247460 75851
FLOCK 2P-9              
1 41610U 16040M   17307.72127201  .00005870  00000-0  25069-3 0  9998
2 41610  97.4443   9.1998 0009453 310.8685  49.1732 15.23228364 75737
FLOCK 2P-4              
1 41611U 16040N   17307.81427467  .00005151  00000-0  22042-3 0  9996
2 41611  97.4470   9.5422 0009704 321.1979  38.8560 15.23218423 75913
FLOCK 2P-10             
1 41612U 16040P   17307.72661036  .00005504  00000-0  23530-3 0  9994
2 41612  97.4475   9.5370 0009488 321.3812  38.6745 15.23219094 75905
FLOCK 2P-8              
1 41613U 16040Q   17307.74309638  .00005592  00000-0  23903-3 0  9995
2 41613  97.4472   9.4899 0009651 320.2299  39.8229 15.23219153 75903
